[
    {
        "OBJECT_NAME": "COSMOS 1975",
        "OBJECT_ID": "1988-093A",
        "EPOCH": "2026-06-13T21:11:11.824800",
        "MEAN_MOTION": 15.29288119,
        "ECCENTRICITY": 0.0010982,
        "INCLINATION": 82.5195,
        "RA_OF_ASC_NODE": 21.0265,
        "ARG_OF_PERICENTER": 182.9263,
        "MEAN_ANOMALY": 177.1915,
        "EPHEMERIS_TYPE": 0,
        "CLASSIFICATION_TYPE": "U",
        "NORAD_CAT_ID": 19573,
        "ELEMENT_SET_NO": 999,
        "REV_AT_EPOCH": 3410,
        "BSTAR": 0.00026406,
        "MEAN_MOTION_DOT": 7.546e-05,
        "MEAN_MOTION_DDOT": 0
    },
    {
        "OBJECT_NAME": "SL-14 R/B",
        "OBJECT_ID": "1988-093B",
        "EPOCH": "2026-06-13T20:21:00.197280",
        "MEAN_MOTION": 14.85739586,
        "ECCENTRICITY": 0.0022164,
        "INCLINATION": 82.5309,
        "RA_OF_ASC_NODE": 311.7799,
        "ARG_OF_PERICENTER": 80.739,
        "MEAN_ANOMALY": 33.7047,
        "EPHEMERIS_TYPE": 0,
        "CLASSIFICATION_TYPE": "U",
        "NORAD_CAT_ID": 19574,
        "ELEMENT_SET_NO": 999,
        "REV_AT_EPOCH": 1529,
        "BSTAR": 4.5371e-05,
        "MEAN_MOTION_DOT": 4.2e-06,
        "MEAN_MOTION_DDOT": 0
    },
    {
        "OBJECT_NAME": "SL-16 R/B",
        "OBJECT_ID": "1988-102B",
        "EPOCH": "2026-06-13T19:50:26.949984",
        "MEAN_MOTION": 14.16165252,
        "ECCENTRICITY": 0.0015945,
        "INCLINATION": 71.0002,
        "RA_OF_ASC_NODE": 309.2103,
        "ARG_OF_PERICENTER": 230.1237,
        "MEAN_ANOMALY": 129.8485,
        "EPHEMERIS_TYPE": 0,
        "CLASSIFICATION_TYPE": "U",
        "NORAD_CAT_ID": 19650,
        "ELEMENT_SET_NO": 999,
        "REV_AT_EPOCH": 94050,
        "BSTAR": -9.7984e-05,
        "MEAN_MOTION_DOT": -2.42e-06,
        "MEAN_MOTION_DDOT": 0
    },
    {
        "OBJECT_NAME": "INTERCOSMOS 24",
        "OBJECT_ID": "1989-080A",
        "EPOCH": "2026-06-13T16:20:18.044160",
        "MEAN_MOTION": 12.59656829,
        "ECCENTRICITY": 0.118839,
        "INCLINATION": 82.6068,
        "RA_OF_ASC_NODE": 41.9264,
        "ARG_OF_PERICENTER": 70.0341,
        "MEAN_ANOMALY": 302.4635,
        "EPHEMERIS_TYPE": 0,
        "CLASSIFICATION_TYPE": "U",
        "NORAD_CAT_ID": 20261,
        "ELEMENT_SET_NO": 999,
        "REV_AT_EPOCH": 67888,
        "BSTAR": 0.00025483,
        "MEAN_MOTION_DOT": 8.97e-06,
        "MEAN_MOTION_DDOT": 0
    },
    {
        "OBJECT_NAME": "SL-14 R/B",
        "OBJECT_ID": "1989-080C",
        "EPOCH": "2026-06-13T21:10:43.267008",
        "MEAN_MOTION": 12.50569021,
        "ECCENTRICITY": 0.1228922,
        "INCLINATION": 82.5929,
        "RA_OF_ASC_NODE": 111.4307,
        "ARG_OF_PERICENTER": 324.9648,
        "MEAN_ANOMALY": 27.6224,
        "EPHEMERIS_TYPE": 0,
        "CLASSIFICATION_TYPE": "U",
        "NORAD_CAT_ID": 20262,
        "ELEMENT_SET_NO": 999,
        "REV_AT_EPOCH": 67217,
        "BSTAR": 9.2412e-05,
        "MEAN_MOTION_DOT": 3.09e-06,
        "MEAN_MOTION_DDOT": 0
    },
    {
        "OBJECT_NAME": "DELTA 1 R/B",
        "OBJECT_ID": "1989-089B",
        "EPOCH": "2026-06-13T13:31:44.338368",
        "MEAN_MOTION": 14.50729331,
        "ECCENTRICITY": 0.0068913,
        "INCLINATION": 97.0637,
        "RA_OF_ASC_NODE": 356.7018,
        "ARG_OF_PERICENTER": 178.3878,
        "MEAN_ANOMALY": 181.7555,
        "EPHEMERIS_TYPE": 0,
        "CLASSIFICATION_TYPE": "U",
        "NORAD_CAT_ID": 20323,
        "ELEMENT_SET_NO": 999,
        "REV_AT_EPOCH": 90963,
        "BSTAR": 8.9381e-05,
        "MEAN_MOTION_DOT": 3.27e-06,
        "MEAN_MOTION_DDOT": 0
    },
    {
        "OBJECT_NAME": "ARIANE 40 R/B",
        "OBJECT_ID": "1990-005H",
        "EPOCH": "2026-06-13T18:41:23.205120",
        "MEAN_MOTION": 14.39925687,
        "ECCENTRICITY": 0.0008795,
        "INCLINATION": 98.296,
        "RA_OF_ASC_NODE": 222.5006,
        "ARG_OF_PERICENTER": 276.2463,
        "MEAN_ANOMALY": 83.7723,
        "EPHEMERIS_TYPE": 0,
        "CLASSIFICATION_TYPE": "U",
        "NORAD_CAT_ID": 20443,
        "ELEMENT_SET_NO": 999,
        "REV_AT_EPOCH": 90663,
        "BSTAR": 8.2481e-05,
        "MEAN_MOTION_DOT": 2.17e-06,
        "MEAN_MOTION_DDOT": 0
    },
    {
        "OBJECT_NAME": "DELTA 2 R/B(1)",
        "OBJECT_ID": "1990-008B",
        "EPOCH": "2026-06-13T15:01:56.898336",
        "MEAN_MOTION": 15.68298526,
        "ECCENTRICITY": 0.0065615,
        "INCLINATION": 35.6007,
        "RA_OF_ASC_NODE": 259.4711,
        "ARG_OF_PERICENTER": 80.4623,
        "MEAN_ANOMALY": 280.3524,
        "EPHEMERIS_TYPE": 0,
        "CLASSIFICATION_TYPE": "U",
        "NORAD_CAT_ID": 20453,
        "ELEMENT_SET_NO": 999,
        "REV_AT_EPOCH": 94114,
        "BSTAR": 0.00066615,
        "MEAN_MOTION_DOT": 0.00088351,
        "MEAN_MOTION_DDOT": 0
    },
    {
        "OBJECT_NAME": "COSMOS 2058",
        "OBJECT_ID": "1990-010A",
        "EPOCH": "2026-06-13T19:50:10.767264",
        "MEAN_MOTION": 15.11991749,
        "ECCENTRICITY": 0.0009615,
        "INCLINATION": 82.4667,
        "RA_OF_ASC_NODE": 312.6689,
        "ARG_OF_PERICENTER": 12.8543,
        "MEAN_ANOMALY": 347.2931,
        "EPHEMERIS_TYPE": 0,
        "CLASSIFICATION_TYPE": "U",
        "NORAD_CAT_ID": 20465,
        "ELEMENT_SET_NO": 999,
        "REV_AT_EPOCH": 95676,
        "BSTAR": 0.00023006,
        "MEAN_MOTION_DOT": 3.98e-05,
        "MEAN_MOTION_DDOT": 0
    },
    {
        "OBJECT_NAME": "SL-14 R/B",
        "OBJECT_ID": "1990-010B",
        "EPOCH": "2026-06-13T12:37:21.368064",
        "MEAN_MOTION": 14.83644167,
        "ECCENTRICITY": 0.00194115,
        "INCLINATION": 82.5016,
        "RA_OF_ASC_NODE": 177.3834,
        "ARG_OF_PERICENTER": 348.6604,
        "MEAN_ANOMALY": 11.4171,
        "EPHEMERIS_TYPE": 0,
        "CLASSIFICATION_TYPE": "U",
        "NORAD_CAT_ID": 20466,
        "ELEMENT_SET_NO": 999,
        "REV_AT_EPOCH": 94269,
        "BSTAR": 4.135196e-05,
        "MEAN_MOTION_DOT": 3.66e-06,
        "MEAN_MOTION_DDOT": 0
    },
    {
        "OBJECT_NAME": "SL-14 R/B",
        "OBJECT_ID": "1990-018B",
        "EPOCH": "2026-06-13T18:30:14.114016",
        "MEAN_MOTION": 14.82214145,
        "ECCENTRICITY": 0.0017255,
        "INCLINATION": 82.5209,
        "RA_OF_ASC_NODE": 133.3007,
        "ARG_OF_PERICENTER": 132.1939,
        "MEAN_ANOMALY": 228.0743,
        "EPHEMERIS_TYPE": 0,
        "CLASSIFICATION_TYPE": "U",
        "NORAD_CAT_ID": 20511,
        "ELEMENT_SET_NO": 999,
        "REV_AT_EPOCH": 93681,
        "BSTAR": 4.1521e-05,
        "MEAN_MOTION_DOT": 3.56e-06,
        "MEAN_MOTION_DDOT": 0
    },
    {
        "OBJECT_NAME": "HST",
        "OBJECT_ID": "1990-037B",
        "EPOCH": "2026-06-13T05:33:13.905216",
        "MEAN_MOTION": 15.30704754,
        "ECCENTRICITY": 0.0001932,
        "INCLINATION": 28.4712,
        "RA_OF_ASC_NODE": 107.6084,
        "ARG_OF_PERICENTER": 101.0971,
        "MEAN_ANOMALY": 258.9842,
        "EPHEMERIS_TYPE": 0,
        "CLASSIFICATION_TYPE": "U",
        "NORAD_CAT_ID": 20580,
        "ELEMENT_SET_NO": 999,
        "REV_AT_EPOCH": 78796,
        "BSTAR": 0.00019317,
        "MEAN_MOTION_DOT": 6.133e-05,
        "MEAN_MOTION_DDOT": 0
    },
    {
        "OBJECT_NAME": "SL-16 R/B",
        "OBJECT_ID": "1990-046B",
        "EPOCH": "2026-06-13T20:06:22.165056",
        "MEAN_MOTION": 14.15025185,
        "ECCENTRICITY": 0.0013625,
        "INCLINATION": 70.9994,
        "RA_OF_ASC_NODE": 95.9822,
        "ARG_OF_PERICENTER": 166.7755,
        "MEAN_ANOMALY": 193.3728,
        "EPHEMERIS_TYPE": 0,
        "CLASSIFICATION_TYPE": "U",
        "NORAD_CAT_ID": 20625,
        "ELEMENT_SET_NO": 999,
        "REV_AT_EPOCH": 86199,
        "BSTAR": 0.00014553,
        "MEAN_MOTION_DOT": 2.35e-06,
        "MEAN_MOTION_DDOT": 0
    }
]