COSMOS 1975             
1 19573U 88093A   26164.88277575  .00007546  00000+0  26406-3 0  9993
2 19573  82.5195  21.0265 0010982 182.9263 177.1915 15.29288119 34109
SL-14 R/B               
1 19574U 88093B   26164.84791895  .00000420  00000+0  45371-4 0  9993
2 19574  82.5309 311.7799 0022164  80.7390  33.7047 14.85739586 15291
SL-16 R/B               
1 19650U 88102B   26164.82670081 -.00000242  00000+0 -97984-4 0  9991
2 19650  71.0002 309.2103 0015945 230.1237 129.8485 14.16165252940501
INTERCOSMOS 24          
1 20261U 89080A   26164.68076440  .00000897  00000+0  25483-3 0  9998
2 20261  82.6068  41.9264 1188390  70.0341 302.4635 12.59656829678887
SL-14 R/B               
1 20262U 89080C   26164.88244522  .00000309  00000+0  92412-4 0  9994
2 20262  82.5929 111.4307 1228922 324.9648  27.6224 12.50569021672175
DELTA 1 R/B             
1 20323U 89089B   26164.56370762  .00000327  00000+0  89381-4 0  9993
2 20323  97.0637 356.7018 0068913 178.3878 181.7555 14.50729331909637
ARIANE 40 R/B           
1 20443U 90005H   26164.77874080  .00000217  00000+0  82481-4 0  9993
2 20443  98.2960 222.5006 0008795 276.2463  83.7723 14.39925687906633
DELTA 2 R/B(1)          
1 20453U 90008B   26164.62635299  .00088351  00000+0  66615-3 0  9993
2 20453  35.6007 259.4711 0065615  80.4623 280.3524 15.68298526941147
COSMOS 2058             
1 20465U 90010A   26164.82651351  .00003980  00000+0  23006-3 0  9990
2 20465  82.4667 312.6689 0009615  12.8543 347.2931 15.11991749956760
SL-14 R/B               
1 20466U 90010B   26164.52594176  .00000366  00000+0  41352-4 0  9999
2 20466  82.5016 177.3834 0019411 348.6604  11.4171 14.83644167942691
SL-14 R/B               
1 20511U 90018B   26164.77099669  .00000356  00000+0  41521-4 0  9999
2 20511  82.5209 133.3007 0017255 132.1939 228.0743 14.82214145936817
HST                     
1 20580U 90037B   26164.23141094  .00006133  00000+0  19317-3 0  9993
2 20580  28.4712 107.6084 0001932 101.0971 258.9842 15.30704754787962
SL-16 R/B               
1 20625U 90046B   26164.83775654  .00000235  00000+0  14553-3 0  9998
2 20625  70.9994  95.9822 0013625 166.7755 193.3728 14.15025185861992
